{
  "links" : {
    "next" : "https://api.nasa.gov/neo/rest/v1/feed?start_date=2009-07-16&end_date=2009-07-16&detailed=true&api_key=t0TVs3DtDT2H8Oy2Zy8m2eVrNsAVKAexjcZXUckd",
    "prev" : "https://api.nasa.gov/neo/rest/v1/feed?start_date=2009-07-14&end_date=2009-07-14&detailed=true&api_key=t0TVs3DtDT2H8Oy2Zy8m2eVrNsAVKAexjcZXUckd",
    "self" : "https://api.nasa.gov/neo/rest/v1/feed?start_date=2009-07-15&end_date=2009-07-15&detailed=true&api_key=t0TVs3DtDT2H8Oy2Zy8m2eVrNsAVKAexjcZXUckd"
  },
  "element_count" : 3,
  "near_earth_objects" : {
    "2009-07-15" : [ {
      "links" : {
        "self" : "https://api.nasa.gov/neo/rest/v1/neo/2203471?api_key=t0TVs3DtDT2H8Oy2Zy8m2eVrNsAVKAexjcZXUckd"
      },
      "neo_reference_id" : "2203471",
      "name" : "203471 (2002 AU4)",
      "nasa_jpl_url" : "http://ssd.jpl.nasa.gov/sbdb.cgi?sstr=2203471",
      "absolute_magnitude_h" : 19.4,
      "estimated_diameter" : {
        "kilometers" : {
          "estimated_diameter_min" : 0.3503926411,
          "estimated_diameter_max" : 0.7835017643
        },
        "meters" : {
          "estimated_diameter_min" : 350.3926411083,
          "estimated_diameter_max" : 783.5017643338
        },
        "miles" : {
          "estimated_diameter_min" : 0.2177238258,
          "estimated_diameter_max" : 0.4868452748
        },
        "feet" : {
          "estimated_diameter_min" : 1149.5821926537,
          "estimated_diameter_max" : 2570.543928497
        }
      },
      "is_potentially_hazardous_asteroid" : false,
      "close_approach_data" : [ {
        "close_approach_date" : "2009-07-15",
        "epoch_date_close_approach" : 1247641200000,
        "relative_velocity" : {
          "kilometers_per_second" : "21.0185736491",
          "kilometers_per_hour" : "75666.8651367409",
          "miles_per_hour" : "47016.4473956599"
        },
        "miss_distance" : {
          "astronomical" : "0.4795976659",
          "lunar" : "186.5634918213",
          "kilometers" : "71746792",
          "miles" : "44581388"
        },
        "orbiting_body" : "Earth"
      } ],
      "orbital_data" : {
        "orbit_id" : "78",
        "orbit_determination_date" : "2017-04-06 09:25:34",
        "orbit_uncertainty" : "0",
        "minimum_orbit_intersection" : ".0896683",
        "jupiter_tisserand_invariant" : "6.801",
        "epoch_osculation" : "2458000.5",
        "eccentricity" : ".3735305342949743",
        "semi_major_axis" : ".8554934151721909",
        "inclination" : "17.18403472044009",
        "ascending_node_longitude" : "99.45577330762242",
        "orbital_period" : "289.0170297779612",
        "perihelion_distance" : ".5359405027170902",
        "perihelion_argument" : "205.169763768651",
        "aphelion_distance" : "1.175046327627292",
        "perihelion_time" : "2457923.702172545414",
        "mean_anomaly" : "95.65947689965239",
        "mean_motion" : "1.245601341473102",
        "equinox" : "J2000"
      }
    }, {
      "links" : {
        "self" : "https://api.nasa.gov/neo/rest/v1/neo/3601407?api_key=t0TVs3DtDT2H8Oy2Zy8m2eVrNsAVKAexjcZXUckd"
      },
      "neo_reference_id" : "3601407",
      "name" : "(2012 EW14)",
      "nasa_jpl_url" : "http://ssd.jpl.nasa.gov/sbdb.cgi?sstr=3601407",
      "absolute_magnitude_h" : 22.2,
      "estimated_diameter" : {
        "kilometers" : {
          "estimated_diameter_min" : 0.096506147,
          "estimated_diameter_max" : 0.2157943048
        },
        "meters" : {
          "estimated_diameter_min" : 96.5061469579,
          "estimated_diameter_max" : 215.7943048444
        },
        "miles" : {
          "estimated_diameter_min" : 0.059966121,
          "estimated_diameter_max" : 0.134088323
        },
        "feet" : {
          "estimated_diameter_min" : 316.6212271853,
          "estimated_diameter_max" : 707.9865871058
        }
      },
      "is_potentially_hazardous_asteroid" : false,
      "close_approach_data" : [ {
        "close_approach_date" : "2009-07-15",
        "epoch_date_close_approach" : 1247641200000,
        "relative_velocity" : {
          "kilometers_per_second" : "20.2452585054",
          "kilometers_per_hour" : "72882.9306193748",
          "miles_per_hour" : "45286.6187506888"
        },
        "miss_distance" : {
          "astronomical" : "0.4610098545",
          "lunar" : "179.3328399658",
          "kilometers" : "68966096",
          "miles" : "42853544"
        },
        "orbiting_body" : "Earth"
      } ],
      "orbital_data" : {
        "orbit_id" : "9",
        "orbit_determination_date" : "2017-04-06 08:50:29",
        "orbit_uncertainty" : "5",
        "minimum_orbit_intersection" : ".047481",
        "jupiter_tisserand_invariant" : "3.652",
        "epoch_osculation" : "2458000.5",
        "eccentricity" : ".4945150672143372",
        "semi_major_axis" : "2.022399164226028",
        "inclination" : "5.457216952466072",
        "ascending_node_longitude" : "15.72116685259646",
        "orbital_period" : "1050.506496651725",
        "perihelion_distance" : "1.022292305594575",
        "perihelion_argument" : "218.3808500601314",
        "aphelion_distance" : "3.022506022857482",
        "perihelion_time" : "2458149.322870115315",
        "mean_anomaly" : "308.9996174109568",
        "mean_motion" : ".3426918359357381",
        "equinox" : "J2000"
      }
    }, {
      "links" : {
        "self" : "https://api.nasa.gov/neo/rest/v1/neo/3685808?api_key=t0TVs3DtDT2H8Oy2Zy8m2eVrNsAVKAexjcZXUckd"
      },
      "neo_reference_id" : "3685808",
      "name" : "(2014 QX432)",
      "nasa_jpl_url" : "http://ssd.jpl.nasa.gov/sbdb.cgi?sstr=3685808",
      "absolute_magnitude_h" : 19.7,
      "estimated_diameter" : {
        "kilometers" : {
          "estimated_diameter_min" : 0.3051792326,
          "estimated_diameter_max" : 0.6824015094
        },
        "meters" : {
          "estimated_diameter_min" : 305.1792325939,
          "estimated_diameter_max" : 682.4015094011
        },
        "miles" : {
          "estimated_diameter_min" : 0.1896295249,
          "estimated_diameter_max" : 0.4240245083
        },
        "feet" : {
          "estimated_diameter_min" : 1001.2442334633,
          "estimated_diameter_max" : 2238.8501681036
        }
      },
      "is_potentially_hazardous_asteroid" : true,
      "close_approach_data" : [ {
        "close_approach_date" : "2009-07-15",
        "epoch_date_close_approach" : 1247641200000,
        "relative_velocity" : {
          "kilometers_per_second" : "25.2293443779",
          "kilometers_per_hour" : "90825.639760426",
          "miles_per_hour" : "56435.5204389158"
        },
        "miss_distance" : {
          "astronomical" : "0.2342733787",
          "lunar" : "91.1323394775",
          "kilometers" : "35046800",
          "miles" : "21777070"
        },
        "orbiting_body" : "Earth"
      } ],
      "orbital_data" : {
        "orbit_id" : "13",
        "orbit_determination_date" : "2017-07-26 06:19:13",
        "orbit_uncertainty" : "2",
        "minimum_orbit_intersection" : ".0189675",
        "jupiter_tisserand_invariant" : "4.632",
        "epoch_osculation" : "2458000.5",
        "eccentricity" : ".5869499138225225",
        "semi_major_axis" : "1.36645074089515",
        "inclination" : "6.439916738771519",
        "ascending_node_longitude" : "111.8284333226164",
        "orbital_period" : "583.4308607779016",
        "perihelion_distance" : ".5644125962840197",
        "perihelion_argument" : "68.62105278617175",
        "aphelion_distance" : "2.16848888550628",
        "perihelion_time" : "2457892.399489567289",
        "mean_anomaly" : "66.70230591485732",
        "mean_motion" : ".6170396943349961",
        "equinox" : "J2000"
      }
    } ]
  }
}